[
    {
        "Altitude(m)": 617719.7411879443,
        "Argument of Periapsis(deg)": 0.0,
        "Eccentricity": 0.0,
        "Inclination(deg)": 60.0,
        "Latitude(deg)": -41.102559552534075,
        "Longitude(deg)": 30.094716049879878,
        "Mean Anomaly(deg)": -130.90909999999997,
        "RAAN(deg)": 280.0,
        "Satellite Name": "Test1 1246",
        "Satellite Number": 1246,
        "Semi-Major Axis(m)": 6980739.136638005,
        "Time(s)": 0
    },
    {
        "Altitude(m)": 617911.276771757,
        "Argument of Periapsis(deg)": 0.00010418945913296404,
        "Eccentricity": 0.0,
        "Inclination(deg)": 60.0,
        "Latitude(deg)": -41.565750837955065,
        "Longitude(deg)": 30.599123105614996,
        "Mean Anomaly(deg)": -130.2889938545382,
        "RAAN(deg)": 279.99957995086027,
        "Satellite Name": "Test1 1246",
        "Satellite Number": 1246,
        "Semi-Major Axis(m)": 6980739.136638005,
        "Time(s)": 10
    }
]